ONEWEB-0168             
1 48068U 21025AC  23295.61960443  .00000109  00000+0  26472-3 0  9993
2 48068  87.8944 152.9595 0001654  84.5817 275.5500 13.13468397126416
ONEWEB-0173             
1 48069U 21025AD  23295.61325627  .00000226  00000+0  58397-3 0  9994
2 48069  87.8946 152.9768 0001096  76.2603 283.8648 13.13468401126659
ONEWEB-0171             
1 48070U 21025AE  23295.57094378 -.00000158  00000+0 -46782-3 0  9998
2 48070  87.9013 152.9857 0001488  73.5720 286.5573 13.13466227126461
ONEWEB-0172             
1 48071U 21025AF  23295.62913845 -.00000204  00000+0 -59440-3 0  9991
2 48071  87.9016 152.9428 0001349  71.4944 288.6332 13.13468624127369
ONEWEB-0174             
1 48072U 21025AG  23295.61116532  .00000750  00000+0  20187-2 0  9998
2 48072  87.9013 152.9616 0001715  89.1149 271.0177 13.13470632126685
ONEWEB-0175             
1 48073U 21025AH  23295.56246609 -.00000333  00000+0 -94683-3 0  9994
2 48073  87.9016 152.9657 0001661  62.8978 297.2320 13.13472470126336
ONEWEB-0177             
1 48074U 21025AJ  23295.57517043 -.00000076  00000+0 -24205-3 0  9996
2 48074  87.9018 152.9672 0001123  89.1313 270.9945 13.13471584126521
ONEWEB-0178             
1 48075U 21025AK  23295.59316330  .00000310  00000+0  81412-3 0  9997
2 48075  87.9012 152.9684 0001405  85.9374 274.1915 13.13470322126570
